O3B FM5                 
1 39188U 13031A   22211.45364280 -.00000019  00000+0  00000+0 0  9996
2 39188   0.0528  23.8243 0002568 106.4401 229.7564  5.00115286166102
O3B FM4                 
1 39189U 13031B   22211.10994027 -.00000020  00000+0  00000+0 0  9999
2 39189   0.0567 354.5712 0002523 134.7585 230.6908  5.00115824166111
O3B FM2                 
1 39190U 13031C   22211.39675613 -.00000019  00000+0  00000+0 0  9997
2 39190   0.0597 350.3666 0001062 128.1578 241.4846  4.99476817166170
O3B PFM                 
1 39191U 13031D   22210.22818813 -.00000021  00000+0  00000+0 0  9993
2 39191   0.0508  14.2091 0002649 112.9875 232.8256  5.00115751165688
O3B FM3                 
1 40079U 14038A   22210.28293163 -.00000021  00000+0  00000+0 0  9999
2 40079   0.0547   2.4068 0005057 122.4258 235.2129  5.00115416142069
O3B FM7                 
1 40080U 14038B   22211.22845641 -.00000020  00000+0  00000+0 0  9999
2 40080   0.0588   0.3845 0000993 161.3332 198.2841  5.00115488146944
O3B FM6                 
1 40081U 14038C   22211.45472068 -.00000019  00000+0  00000+0 0  9992
2 40081   0.0542   1.2598 0002691 128.4784 230.2837  5.00115466146894
O3B FM8                 
1 40082U 14038D   22211.30878295 -.00000019  00000+0  00000+0 0  9999
2 40082   0.0542 357.9575 0002684 127.5540 234.5118  5.00115702147010
O3B FM10                
1 40348U 14083A   22211.33478938 -.00000019  00000+0  00000+0 0  9997
2 40348   0.0483   9.0604 0002632 119.1925 231.7689  5.00115164138962
O3B FM11                
1 40349U 14083B   22210.94848714 -.00000020  00000+0  00000+0 0  9999
2 40349   0.0526  10.9633 0002222 130.6978 218.3528  5.00115432138955
O3B FM12                
1 40350U 14083C   22211.37546391 -.00000019  00000+0  00000+0 0  9993
2 40350   0.0524   9.9658 0002683 122.3993 227.6558  5.00115279138995
O3B FM9                 
1 40351U 14083D   22211.40241152 -.00000019  00000+0  00000+0 0  9995
2 40351   0.0536  11.7080 0002582 117.7336 230.5796  5.00115609139148
DIAMOND RED             
1 42783U 17036U   22211.35183350  .00004138  00000+0  15351-3 0  9990
2 42783  97.1963 250.6828 0010834 167.9432 192.2070 15.28080982283490
DIAMOND GREEN           
1 42785U 17036W   22211.54781603  .00004390  00000+0  16297-3 0  9998
2 42785  97.1967 250.9361 0010674 168.3284 191.8206 15.28028327283595
DIAMOND BLUE            
1 42786U 17036X   22211.35046884  .00004273  00000+0  15866-3 0  9994
2 42786  97.1967 250.7373 0010678 169.4955 190.6510 15.28038624283561
LEO VANTAGE 1           
1 43113U 18004C   22211.50153394  .00001051  00000+0  90033-4 0  9998
2 43113  99.2463 296.1136 0401922  62.0895 302.0392 14.53988746230495
O3B FM15                
1 43231U 18024A   22211.26847790 -.00000020  00000+0  00000+0 0  9990
2 43231   0.0448   7.9510 0002883 123.4036 228.6684  5.00116016 80096
O3B FM16                
1 43232U 18024B   22211.32185384 -.00000019  00000+0  00000+0 0  9990
2 43232   0.0408   7.6410 0002845 123.8869 228.4948  5.00115933 80015
O3B FM14                
1 43233U 18024C   22211.36143292 -.00000019  00000+0  00000+0 0  9997
2 43233   0.0394   6.5596 0002661 126.0892 227.3719  5.00115316 80020
O3B FM13                
1 43234U 18024D   22208.01678119 -.00000024  00000+0  00000+0 0  9993
2 43234   0.0510  40.2456 0003497  99.1240 220.6543  5.00115073 79979
O3B FM20                
1 44112U 19020A   22211.38815957 -.00000019  00000+0  00000+0 0  9997
2 44112   0.0483   8.2099 0002881 130.5014 221.3087  5.00115480 60643
O3B FM19                
1 44113U 19020B   22210.81524545 -.00000020  00000+0  00000+0 0  9997
2 44113   0.0551  23.5318 0001731 107.7214 228.7598  5.00115059 60689
O3B FM17                
1 44114U 19020C   22211.09569859 -.00000020  00000+0  00000+0 0  9996
2 44114   0.0438 344.0057 0002978 148.2649 227.7528  5.00115590 60582
O3B FM18                
1 44115U 19020D   22211.04223647 -.00000020  00000+0  00000+0 0  9994
2 44115   0.0484   8.7316 0002876 119.7581 231.5342  5.00115803 60709
SALSAT                  
1 46495U 20068K   22211.32492521  .00001538  00000+0  11353-3 0  9992
2 46495  97.7302 152.6456 0017502 129.4245 230.8534 15.04660996100630
